[Satellite]
VERSION=1.1
NAME=GORIZONT 31
NICKNAME=GORIZONT 31
TLE1=1 23775U 96005A   17185.39370837 -.00000304  00000-0  00000-0 0  9994
TLE2=2 23775  14.1113  21.9035 0020753 165.0808 183.6361  0.99892355 78386
